IRIDIUM 33 DEB          
1 34696U 97051KT  17345.91185365  .00001578  00000-0  75904-3 0  9997
2 34696  86.2100 211.7595 0150560 154.0149 266.1266 14.12450682451033
